[{"OBJECT_NAME":"STARLINK-4432","OBJECT_ID":"2022-099Y","EPOCH":"2026-03-09T22:06:52.901568","MEAN_MOTION":15.05636048,"ECCENTRICITY":9.595e-5,"INCLINATION":97.6019,"RA_OF_ASC_NODE":191.4441,"ARG_OF_PERICENTER":99.2216,"MEAN_ANOMALY":260.912,"EPHEMERIS_TYPE":0,"CLASSIFICATION_TYPE":"U","NORAD_CAT_ID":53487,"ELEMENT_SET_NO":999,"REV_AT_EPOCH":19608,"BSTAR":-1.3025967e-5,"MEAN_MOTION_DOT":-2.49e-6,"MEAN_MOTION_DDOT":0},{"OBJECT_NAME":"3CAT-4","OBJECT_ID":"2024-128B","EPOCH":"2026-03-09T23:24:16.548192","MEAN_MOTION":15.017951,"ECCENTRICITY":0.00535476,"INCLINATION":61.9919,"RA_OF_ASC_NODE":211.2729,"ARG_OF_PERICENTER":115.9438,"MEAN_ANOMALY":244.7184,"EPHEMERIS_TYPE":0,"CLASSIFICATION_TYPE":"U","NORAD_CAT_ID":60236,"ELEMENT_SET_NO":999,"REV_AT_EPOCH":9120,"BSTAR":0.00028129934,"MEAN_MOTION_DOT":3.584e-5,"MEAN_MOTION_DDOT":0}]
